GLOBALSTAR M063         
1 26081U 00008A   25092.82840017 -.00000055  00000+0  40169-3 0  9996
2 26081  51.9962 310.0434 0004794 162.1374 279.4949 11.86167861148635
GLOBALSTAR M062         
1 26082U 00008B   25092.87708193 -.00000067  00000+0  21945-3 0  9994
2 26082  51.9861 317.2490 0006494 316.6473  69.5239 12.43462129149753
GLOBALSTAR M060         
1 26083U 00008C   25092.79959662  .00000025  00000+0  11574-2 0  9994
2 26083  52.0009 266.8178 0002659 343.9674 120.0013 12.17658491143181
GLOBALSTAR M064         
1 26084U 00008D   25092.62210473 -.00000085  00000+0 -26857-4 0  9997
2 26084  52.0046  50.2979 0001233 282.1124  77.9570 11.88532056158110
GLOBALSTAR M065         
1 31571U 07020A   25092.77188828 -.00000068  00000+0  19778-3 0  9992
2 31571  51.9875  95.8065 0010439 139.3853  31.5130 12.62003766823881
GLOBALSTAR M069         
1 31573U 07020C   25092.67390218 -.00000088  00000+0  68061-4 0  9993
2 31573  51.9953  64.2271 0000695  25.5558 145.2820 12.42143617824787
GLOBALSTAR M072         
1 31574U 07020D   25092.59068060 -.00000106  00000+0 -29897-3 0  9997
2 31574  52.0144 193.2226 0001721 181.8856 192.5054 11.91776867822787
GLOBALSTAR M071         
1 31576U 07020F   25092.75277538 -.00000146  00000+0 -53711-3 0  9995
2 31576  52.0052  82.2022 0000714 322.3610 209.3442 12.18251244485745
